CCSDS_OMM_VERS = 2.0
CREATION_DATE  = 
ORIGINATOR     = 

OBJECT_NAME    = STARLINK-36227
OBJECT_ID      = 2025-298W
CENTER_NAME    = EARTH
REF_FRAME      = TEME
TIME_SYSTEM    = UTC
MEAN_ELEMENT_THEORY = SGP/SGP4

EPOCH          = 2026-01-11T06:00:02.000160
MEAN_MOTION    = 15.42635152
ECCENTRICITY   = .00025257
INCLINATION    = 69.9997
RA_OF_ASC_NODE = 167.4601
ARG_OF_PERICENTER = 273.3568
MEAN_ANOMALY   = 292.2023

EPHEMERIS_TYPE = 0
CLASSIFICATION_TYPE = U
NORAD_CAT_ID   = 67095
ELEMENT_SET_NO = 999
REV_AT_EPOCH   = 565
BSTAR          = .28449169E-2
MEAN_MOTION_DOT = .126158E-2
MEAN_MOTION_DDOT = 0

CCSDS_OMM_VERS = 2.0
CREATION_DATE  = 
ORIGINATOR     = 

OBJECT_NAME    = STARLINK-36228
OBJECT_ID      = 2025-298X
CENTER_NAME    = EARTH
REF_FRAME      = TEME
TIME_SYSTEM    = UTC
MEAN_ELEMENT_THEORY = SGP/SGP4

EPOCH          = 2026-01-11T00:04:01.814592
MEAN_MOTION    = 15.52558425
ECCENTRICITY   = .0003217
INCLINATION    = 69.9999
RA_OF_ASC_NODE = 168.0299
ARG_OF_PERICENTER = 280.2077
MEAN_ANOMALY   = 79.8747

EPHEMERIS_TYPE = 0
CLASSIFICATION_TYPE = U
NORAD_CAT_ID   = 67096
ELEMENT_SET_NO = 999
REV_AT_EPOCH   = 437
BSTAR          = .11159951E-2
MEAN_MOTION_DOT = .69187E-3
MEAN_MOTION_DDOT = 0

CCSDS_OMM_VERS = 2.0
CREATION_DATE  = 
ORIGINATOR     = 

OBJECT_NAME    = STARLINK-36222
OBJECT_ID      = 2025-298Y
CENTER_NAME    = EARTH
REF_FRAME      = TEME
TIME_SYSTEM    = UTC
MEAN_ELEMENT_THEORY = SGP/SGP4

EPOCH          = 2026-01-11T06:18:29.154816
MEAN_MOTION    = 15.46928596
ECCENTRICITY   = .00055057
INCLINATION    = 70.0002
RA_OF_ASC_NODE = 167.3316
ARG_OF_PERICENTER = 295.8182
MEAN_ANOMALY   = 64.2433

EPHEMERIS_TYPE = 0
CLASSIFICATION_TYPE = U
NORAD_CAT_ID   = 67097
ELEMENT_SET_NO = 999
REV_AT_EPOCH   = 441
BSTAR          = -.80355197E-2
MEAN_MOTION_DOT = -.387069E-2
MEAN_MOTION_DDOT = 0

CCSDS_OMM_VERS = 2.0
CREATION_DATE  = 
ORIGINATOR     = 

OBJECT_NAME    = STARLINK-36205
OBJECT_ID      = 2025-298Z
CENTER_NAME    = EARTH
REF_FRAME      = TEME
TIME_SYSTEM    = UTC
MEAN_ELEMENT_THEORY = SGP/SGP4

EPOCH          = 2026-01-10T20:32:58.428384
MEAN_MOTION    = 15.42643599
ECCENTRICITY   = .00030376
INCLINATION    = 70.0013
RA_OF_ASC_NODE = 168.7299
ARG_OF_PERICENTER = 263.9289
MEAN_ANOMALY   = 96.1546

EPHEMERIS_TYPE = 0
CLASSIFICATION_TYPE = U
NORAD_CAT_ID   = 67098
ELEMENT_SET_NO = 999
REV_AT_EPOCH   = 434
BSTAR          = -.16517792E-2
MEAN_MOTION_DOT = -.71654E-3
MEAN_MOTION_DDOT = 0

CCSDS_OMM_VERS = 2.0
CREATION_DATE  = 
ORIGINATOR     = 

OBJECT_NAME    = STARLINK-36193
OBJECT_ID      = 2025-298AA
CENTER_NAME    = EARTH
REF_FRAME      = TEME
TIME_SYSTEM    = UTC
MEAN_ELEMENT_THEORY = SGP/SGP4

EPOCH          = 2026-01-11T03:44:31.292736
MEAN_MOTION    = 15.42759838
ECCENTRICITY   = .00049891
INCLINATION    = 70.0003
RA_OF_ASC_NODE = 168.1765
ARG_OF_PERICENTER = 270.7796
MEAN_ANOMALY   = 89.2814

EPHEMERIS_TYPE = 0
CLASSIFICATION_TYPE = U
NORAD_CAT_ID   = 67099
ELEMENT_SET_NO = 999
REV_AT_EPOCH   = 438
BSTAR          = .91538973E-3
MEAN_MOTION_DOT = .40222E-3
MEAN_MOTION_DDOT = 0

CCSDS_OMM_VERS = 2.0
CREATION_DATE  = 
ORIGINATOR     = 

OBJECT_NAME    = STARLINK-36215
OBJECT_ID      = 2025-298AB
CENTER_NAME    = EARTH
REF_FRAME      = TEME
TIME_SYSTEM    = UTC
MEAN_ELEMENT_THEORY = SGP/SGP4

EPOCH          = 2026-01-10T19:23:13.395552
MEAN_MOTION    = 15.52562436
ECCENTRICITY   = .00034313
INCLINATION    = 70.0008
RA_OF_ASC_NODE = 168.5511
ARG_OF_PERICENTER = 280.8691
MEAN_ANOMALY   = 79.2110

EPHEMERIS_TYPE = 0
CLASSIFICATION_TYPE = U
NORAD_CAT_ID   = 67100
ELEMENT_SET_NO = 999
REV_AT_EPOCH   = 434
BSTAR          = .13372251E-2
MEAN_MOTION_DOT = .83095E-3
MEAN_MOTION_DDOT = 0

CCSDS_OMM_VERS = 2.0
CREATION_DATE  = 
ORIGINATOR     = 

OBJECT_NAME    = STARLINK-36200
OBJECT_ID      = 2025-298AC
CENTER_NAME    = EARTH
REF_FRAME      = TEME
TIME_SYSTEM    = UTC
MEAN_ELEMENT_THEORY = SGP/SGP4

EPOCH          = 2026-01-11T03:56:27.283488
MEAN_MOTION    = 15.42767858
ECCENTRICITY   = .00034122
INCLINATION    = 70.0017
RA_OF_ASC_NODE = 167.7957
ARG_OF_PERICENTER = 271.1136
MEAN_ANOMALY   = 88.9655

EPHEMERIS_TYPE = 0
CLASSIFICATION_TYPE = U
NORAD_CAT_ID   = 67101
ELEMENT_SET_NO = 999
REV_AT_EPOCH   = 439
BSTAR          = .11071769E-2
MEAN_MOTION_DOT = .48736E-3
MEAN_MOTION_DDOT = 0

CCSDS_OMM_VERS = 2.0
CREATION_DATE  = 
ORIGINATOR     = 

OBJECT_NAME    = STARLINK-36255
OBJECT_ID      = 2025-299A
CENTER_NAME    = EARTH
REF_FRAME      = TEME
TIME_SYSTEM    = UTC
MEAN_ELEMENT_THEORY = SGP/SGP4

EPOCH          = 2026-01-11T05:46:41.602656
MEAN_MOTION    = 15.40719552
ECCENTRICITY   = .00009153
INCLINATION    = 42.9977
RA_OF_ASC_NODE = 140.0662
ARG_OF_PERICENTER = 276.4265
MEAN_ANOMALY   = 83.6487

EPHEMERIS_TYPE = 0
CLASSIFICATION_TYPE = U
NORAD_CAT_ID   = 67102
ELEMENT_SET_NO = 999
REV_AT_EPOCH   = 425
BSTAR          = .15248805E-2
MEAN_MOTION_DOT = .63972E-3
MEAN_MOTION_DDOT = 0

CCSDS_OMM_VERS = 2.0
CREATION_DATE  = 
ORIGINATOR     = 

OBJECT_NAME    = STARLINK-36256
OBJECT_ID      = 2025-299B
CENTER_NAME    = EARTH
REF_FRAME      = TEME
TIME_SYSTEM    = UTC
MEAN_ELEMENT_THEORY = SGP/SGP4

EPOCH          = 2026-01-11T01:00:11.409408
MEAN_MOTION    = 15.40726855
ECCENTRICITY   = .00008743
INCLINATION    = 42.9965
RA_OF_ASC_NODE = 141.1490
ARG_OF_PERICENTER = 283.1336
MEAN_ANOMALY   = 76.9423

EPHEMERIS_TYPE = 0
CLASSIFICATION_TYPE = U
NORAD_CAT_ID   = 67103
ELEMENT_SET_NO = 999
REV_AT_EPOCH   = 422
BSTAR          = .94504343E-3
MEAN_MOTION_DOT = .39412E-3
MEAN_MOTION_DDOT = 0

CCSDS_OMM_VERS = 2.0
CREATION_DATE  = 
ORIGINATOR     = 

OBJECT_NAME    = STARLINK-36258
OBJECT_ID      = 2025-299C
CENTER_NAME    = EARTH
REF_FRAME      = TEME
TIME_SYSTEM    = UTC
MEAN_ELEMENT_THEORY = SGP/SGP4

EPOCH          = 2026-01-11T01:33:27.863712
MEAN_MOTION    = 15.50629760
ECCENTRICITY   = .00017097
INCLINATION    = 43.0000
RA_OF_ASC_NODE = 140.4545
ARG_OF_PERICENTER = 275.6854
MEAN_ANOMALY   = 84.3811

EPHEMERIS_TYPE = 0
CLASSIFICATION_TYPE = U
NORAD_CAT_ID   = 67104
ELEMENT_SET_NO = 999
REV_AT_EPOCH   = 423
BSTAR          = .12076897E-2
MEAN_MOTION_DOT = .71285E-3
MEAN_MOTION_DDOT = 0

CCSDS_OMM_VERS = 2.0
CREATION_DATE  = 
ORIGINATOR     = 

OBJECT_NAME    = STARLINK-36261
OBJECT_ID      = 2025-299D
CENTER_NAME    = EARTH
REF_FRAME      = TEME
TIME_SYSTEM    = UTC
MEAN_ELEMENT_THEORY = SGP/SGP4

EPOCH          = 2026-01-11T01:03:24.959232
MEAN_MOTION    = 15.40726655
ECCENTRICITY   = .00009723
INCLINATION    = 42.9968
RA_OF_ASC_NODE = 141.1683
ARG_OF_PERICENTER = 296.1636
MEAN_ANOMALY   = 63.9120

EPHEMERIS_TYPE = 0
CLASSIFICATION_TYPE = U
NORAD_CAT_ID   = 67105
ELEMENT_SET_NO = 999
REV_AT_EPOCH   = 422
BSTAR          = .10335316E-2
MEAN_MOTION_DOT = .43152E-3
MEAN_MOTION_DDOT = 0

CCSDS_OMM_VERS = 2.0
CREATION_DATE  = 
ORIGINATOR     = 

OBJECT_NAME    = STARLINK-36259
OBJECT_ID      = 2025-299E
CENTER_NAME    = EARTH
REF_FRAME      = TEME
TIME_SYSTEM    = UTC
MEAN_ELEMENT_THEORY = SGP/SGP4

EPOCH          = 2026-01-11T00:00:02.000160
MEAN_MOTION    = 15.40691002
ECCENTRICITY   = .00018341
INCLINATION    = 42.9997
RA_OF_ASC_NODE = 141.1791
ARG_OF_PERICENTER = 281.7271
MEAN_ANOMALY   = 293.4623

EPHEMERIS_TYPE = 0
CLASSIFICATION_TYPE = U
NORAD_CAT_ID   = 67106
ELEMENT_SET_NO = 999
REV_AT_EPOCH   = 551
BSTAR          = .1209277E-3
MEAN_MOTION_DOT = .475E-4
MEAN_MOTION_DDOT = 0

