STARLINK-36227          
1 67095U 25298W   26011.25002315  .00126158  00000+0  28449-2 0  9992
2 67095  69.9997 167.4601 0002525 273.3568 292.2023 15.42635152  5651
STARLINK-36228          
1 67096U 25298X   26011.00279878  .00069187  00000+0  11160-2 0  9996
2 67096  69.9999 168.0299 0003217 280.2077  79.8747 15.52558425  4373
STARLINK-36222          
1 67097U 25298Y   26011.26283744 -.00387069  00000+0 -80355-2 0  9998
2 67097  70.0002 167.3316 0005505 295.8182  64.2433 15.46928596  4413
STARLINK-36205          
1 67098U 25298Z   26010.85623181 -.00071654  00000+0 -16518-2 0  9996
2 67098  70.0013 168.7299 0003037 263.9289  96.1546 15.42643599  4347
STARLINK-36193          
1 67099U 25298AA  26011.15591774  .00040222  00000+0  91539-3 0  9995
2 67099  70.0003 168.1765 0004989 270.7796  89.2814 15.42759838  4384
STARLINK-36215          
1 67100U 25298AB  26010.80779393  .00083095  00000+0  13372-2 0  9997
2 67100  70.0008 168.5511 0003431 280.8691  79.2110 15.52562436  4343
STARLINK-36200          
1 67101U 25298AC  26011.16420467  .00048736  00000+0  11072-2 0  9991
2 67101  70.0017 167.7957 0003412 271.1136  88.9655 15.42767858  4395
STARLINK-36255          
1 67102U 25299A   26011.24075929  .00063972  00000+0  15249-2 0  9990
2 67102  42.9977 140.0662 0000915 276.4265  83.6487 15.40719552  4258
STARLINK-36256          
1 67103U 25299B   26011.04179872  .00039412  00000+0  94504-3 0  9995
2 67103  42.9965 141.1490 0000874 283.1336  76.9423 15.40726855  4221
STARLINK-36258          
1 67104U 25299C   26011.06490583  .00071285  00000+0  12077-2 0  9991
2 67104  43.0000 140.4545 0001709 275.6854  84.3811 15.50629760  4239
STARLINK-36261          
1 67105U 25299D   26011.04403888  .00043152  00000+0  10335-2 0  9999
2 67105  42.9968 141.1683 0000972 296.1636  63.9120 15.40726655  4224
STARLINK-36259          
1 67106U 25299E   26011.00002315  .00004750  00000+0  12093-3 0  9991
2 67106  42.9997 141.1791 0001834 281.7271 293.4623 15.40691002  5518
